NORAD_CAT_ID,OBJECT_NAME,OBJECT_TYPE,EPOCH,MEAN_MOTION,ECCENTRICITY,INCLINATION,RA_OF_ASC_NODE,ARG_OF_PERICENTER,MEAN_ANOMALY,BSTAR,MEAN_MOTION_DOT,MEAN_MOTION_DDOT,TLE_LINE0,TLE_LINE1,TLE_LINE2,SEMIMAJOR_AXIS,PERIOD,APOGEE,PERIGEE,DECAYED
55765.0,STARLINK-5595,PAYLOAD,2023-03-19 22:00:00,15.73125027,0.0003488,70.0001,109.7904,269.2653,327.7033,-0.0072683,-0.00899899,0.0,0 STARLINK-5595,1 55765U 23028AA  23078.91667824 -.00899899  00000-0 -72683-2 0  9998,2 55765  70.0001 109.7904 0003488 269.2653 327.7033 15.73125027  3207,6728.109,91.538,352.321,347.627,0.0
55765.0,STARLINK-5595,PAYLOAD,2023-03-20 14:00:01,15.71763832,0.0003218,69.993,107.9001,278.1999,131.5761,-0.0071203,-0.00837935,0.0,0 STARLINK-5595,1 55765U 23028AA  23079.58334491 -.00837935  00000-0 -71203-2 0  9993,2 55765  69.9930 107.9001 0003218 278.1999 131.5761 15.71763832  3306,6731.993,91.617,356.024,351.692,0.0
55765.0,STARLINK-5595,PAYLOAD,2023-03-20 22:00:01,15.71124824,0.0003197,69.9933,106.9613,266.2403,228.7898,-0.0071277,-0.00818359,0.0,0 STARLINK-5595,1 55765U 23028AA  23079.91668981 -.00818359  00000-0 -71277-2 0  9994,2 55765  69.9933 106.9613 0003197 266.2403 228.7898 15.71124824  1301,6733.818,91.654,357.836,353.53,0.0
55765.0,STARLINK-5595,PAYLOAD,2023-03-21 06:00:00,15.70425644,0.0003274,69.9941,106.0229,268.6133,310.7925,-0.0059027,-0.00669906,0.0,0 STARLINK-5595,1 55765U 23028AA  23080.25001157 -.00669906  00000-0 -59027-2 0  9990,2 55765  69.9941 106.0229 0003274 268.6133 310.7925 15.70425644  3416,6735.817,91.695,359.887,355.476,0.0
55765.0,STARLINK-5595,PAYLOAD,2023-03-21 14:00:01,15.69921441,0.0003449,69.9948,105.0848,270.434,32.6706,1.4669e-06,-3.7e-07,0.0,0 STARLINK-5595,1 55765U 23028AA  23080.58335648 -.00000037  00000-0  14669-5 0  9990,2 55765  69.9948 105.0848 0003449 270.4340  32.6706 15.69921441  3460,6737.259,91.724,361.447,356.8,0.0
55765.0,STARLINK-5595,PAYLOAD,2023-03-21 22:00:00,15.69878124,0.0003521,69.997,104.1473,262.825,123.5605,0.00081603,0.00098886,0.0,0 STARLINK-5595,1 55765U 23028AA  23080.91667824  .00098886  00000-0  81603-3 0  9999,2 55765  69.9970 104.1473 0003521 262.8250 123.5605 15.69878124  1303,6737.383,91.727,361.62,356.875,0.0
55765.0,STARLINK-5595,PAYLOAD,2023-03-22 22:00:00,15.69842978,0.0003474,70.0003,101.3352,258.3481,18.1201,0.00065652,0.00079212,0.0,0 STARLINK-5595,1 55765U 23028AA  23081.91667824  .00079212  00000-0  65652-3 0  9998,2 55765  70.0003 101.3352 0003474 258.3481  18.1201 15.69842978  3672,6737.483,91.729,361.689,357.008,0.0
55765.0,STARLINK-5595,PAYLOAD,2023-03-23 14:00:01,15.69928684,0.0003423,70.0005,99.4606,266.0433,177.0676,-0.000137,-0.00016656,0.0,0 STARLINK-5595,1 55765U 23028AA  23082.58335648 -.00016656  00000-0 -13700-3 0  9990,2 55765  70.0005  99.4606 0003423 266.0433 177.0676 15.69928684  3771,6737.238,91.724,361.409,356.797,0.0
55765.0,STARLINK-5595,PAYLOAD,2023-03-24 17:00:11,15.69869436,0.000357,70.0004,96.2974,281.7602,38.2408,0.00033651,0.00040354,0.0,0 STARLINK-5595,1 55765U 23028AA  23083.70846065  .00040354  00000-0  33651-3 0  9992,2 55765  70.0004  96.2974 0003570 281.7602  38.2408 15.69869436  3958,6737.408,91.727,361.678,356.867,0.0
55765.0,STARLINK-5595,PAYLOAD,2023-03-24 22:00:01,15.69839339,0.0003577,70.0006,95.7121,276.8134,139.6367,0.0014597,0.00178465,0.0,0 STARLINK-5595,1 55765U 23028AA  23083.91668981  .00178465  00000-0  14597-2 0  9996,2 55765  70.0006  95.7121 0003577 276.8134 139.6367 15.69839339  1306,6737.494,91.729,361.769,356.949,0.0
55765.0,STARLINK-5595,PAYLOAD,2023-03-25 03:52:41,15.69878896,0.0003485,70.0006,95.0237,277.887,82.193,0.00024923,0.00029806,0.0,0 STARLINK-5595,1 55765U 23028AA  23084.16159299  .00029806  00000-0  24923-3 0  9990,2 55765  70.0006  95.0237 0003485 277.8870  82.1930 15.69878896  4024,6737.38,91.727,361.593,356.898,0.0
55765.0,STARLINK-5595,PAYLOAD,2023-03-25 09:59:42,15.69906282,0.0004397,70.0007,94.3073,276.5971,83.4724,0.00027368,0.00032806,0.0,0 STARLINK-5595,1 55765U 23028AA  23084.41646227  .00032806  00000-0  27368-3 0  9990,2 55765  70.0007  94.3073 0004397 276.5971  83.4724 15.69906282  4066,6737.302,91.725,362.13,356.205,0.0
55765.0,STARLINK-5595,PAYLOAD,2023-03-25 17:38:27,15.69933928,0.0004544,70.0009,93.4111,273.7071,86.3605,0.00028953,0.00034768,0.0,0 STARLINK-5595,1 55765U 23028AA  23084.73504393  .00034768  00000-0  28953-3 0  9992,2 55765  70.0009  93.4111 0004544 273.7071  86.3605 15.69933928  4129,6737.223,91.724,362.149,356.027,0.0
55765.0,STARLINK-5595,PAYLOAD,2023-03-26 02:48:57,15.70020742,0.0004079,70.0008,92.3367,275.5884,84.4846,0.00076349,0.00092997,0.0,0 STARLINK-5595,1 55765U 23028AA  23085.11733161  .00092997  00000-0  76349-3 0  9992,2 55765  70.0008  92.3367 0004079 275.5884  84.4846 15.70020742  4178,6736.975,91.719,361.588,356.092,0.0
55765.0,STARLINK-5595,PAYLOAD,2023-03-26 10:27:43,15.69944198,0.0003407,70.0015,91.442,284.5512,75.5306,0.00049476,0.00059753,0.0,0 STARLINK-5595,1 55765U 23028AA  23085.43591671  .00059753  00000-0  49476-3 0  9999,2 55765  70.0015  91.4420 0003407 284.5512  75.5306 15.69944198  4224,6737.194,91.723,361.354,356.763,0.0
55765.0,STARLINK-5595,PAYLOAD,2023-03-26 18:06:28,15.69960462,0.0004402,70.0021,90.547,287.833,72.2385,0.00095781,0.00116769,0.0,0 STARLINK-5595,1 55765U 23028AA  23085.75449620  .00116769  00000-0  95781-3 0  9991,2 55765  70.0021  90.5470 0004402 287.8330  72.2385 15.69960462  4285,6737.147,91.722,361.978,356.046,0.0
55765.0,STARLINK-5595,PAYLOAD,2023-03-27 06:00:00,15.69935809,0.0003997,70.0013,89.1521,279.7591,359.9857,-0.00018246,-0.00022108,0.0,0 STARLINK-5595,1 55765U 23028AA  23086.25001157 -.00022108  00000-0 -18246-3 0  9992,2 55765  70.0013  89.1521 0003997 279.7591 359.9857 15.69935809  4358,6737.218,91.723,361.776,356.39,0.0
55765.0,STARLINK-5595,PAYLOAD,2023-03-27 14:00:01,15.69937918,0.0003895,70.0012,88.2149,278.6722,84.4122,-0.00040864,-0.00049096,0.0,0 STARLINK-5595,1 55765U 23028AA  23086.58334491 -.00049096  00000-0 -40864-3 0  9994,2 55765  70.0012  88.2149 0003895 278.6722  84.4122 15.69937918  1304,6737.212,91.723,361.701,356.452,0.0
55765.0,STARLINK-5595,PAYLOAD,2023-03-27 22:00:00,15.69891969,0.0003752,70.0014,87.2781,269.2648,177.154,0.00066616,0.00080558,0.0,0 STARLINK-5595,1 55765U 23028AA  23086.91667824  .00080558  00000-0  66616-3 0  9999,2 55765  70.0014  87.2781 0003752 269.2648 177.1540 15.69891969  1301,6737.343,91.726,361.736,356.68,0.0
55765.0,STARLINK-5595,PAYLOAD,2023-03-28 03:45:01,15.69925649,0.0003954,70.0015,86.6064,272.0736,88.0007,2.9201e-05,3.3e-05,0.0,0 STARLINK-5595,1 55765U 23028AA  23087.15626384  .00003300  00000-0  29201-4 0  9992,2 55765  70.0015  86.6064 0003954 272.0736  88.0007 15.69925649  4497,6737.247,91.724,361.776,356.448,0.0
55765.0,STARLINK-5595,PAYLOAD,2023-03-28 11:23:46,15.69934406,0.0003862,70.0011,85.7112,269.6413,90.434,7.012e-05,8.231e-05,0.0,0 STARLINK-5595,1 55765U 23028AA  23087.47484590  .00008231  00000-0  70120-4 0  9992,2 55765  70.0011  85.7112 0003862 269.6413  90.4340 15.69934406  4554,6737.222,91.724,361.689,356.485,0.0
55765.0,STARLINK-5595,PAYLOAD,2023-03-28 17:30:47,15.69935957,0.0003796,70.0013,84.9937,272.5823,87.4938,8.0896e-05,9.531e-05,0.0,0 STARLINK-5595,1 55765U 23028AA  23087.72971213  .00009531  00000-0  80896-4 0  9998,2 55765  70.0013  84.9937 0003796 272.5823  87.4938 15.69935957  4591,6737.217,91.723,361.64,356.525,0.0
55765.0,STARLINK-5595,PAYLOAD,2023-03-29 08:48:18,15.69927342,0.0003723,70.0015,83.2028,271.0657,89.0112,3.3697e-05,3.842e-05,0.0,0 STARLINK-5595,1 55765U 23028AA  23088.36688050  .00003842  00000-0  33697-4 0  9999,2 55765  70.0015  83.2028 0003723 271.0657  89.0112 15.69927342  4686,6737.242,91.724,361.615,356.599,0.0
55765.0,STARLINK-5595,PAYLOAD,2023-03-29 11:51:49,15.69911026,0.0003396,70.0007,82.8446,274.4495,85.6313,-3.5458e-05,-4.472e-05,0.0,0 STARLINK-5595,1 55765U 23028AA  23088.49431870 -.00004472  00000-0 -35458-4 0  9998,2 55765  70.0007  82.8446 0003396 274.4495  85.6313 15.69911026  4710,6737.289,91.725,361.442,356.866,0.0
55765.0,STARLINK-5595,PAYLOAD,2023-03-30 01:37:35,15.699294,0.0003748,70.0014,81.2322,273.2393,86.8374,9.185e-05,0.00010849,0.0,0 STARLINK-5595,1 55765U 23028AA  23089.06776760  .00010849  00000-0  91850-4 0  9993,2 55765  70.0014  81.2322 0003748 273.2393  86.8374 15.69929400  4792,6737.236,91.724,361.626,356.576,0.0
55765.0,STARLINK-5595,PAYLOAD,2023-03-30 10:48:06,15.69916325,0.0002991,70.0005,80.1572,272.7098,87.3755,-1.8856e-05,-2.478e-05,0.0,0 STARLINK-5595,1 55765U 23028AA  23089.45007179 -.00002478  00000-0 -18856-4 0  9993,2 55765  70.0005  80.1572 0002991 272.7098  87.3755 15.69916325  4850,6737.273,91.725,361.154,357.123,0.0
55765.0,STARLINK-5595,PAYLOAD,2023-03-31 11:16:07,15.69930509,0.0002818,70.0008,77.2898,283.198,76.8901,0.00018932,0.00022617,0.0,0 STARLINK-5595,1 55765U 23028AA  23090.46953521  .00022617  00000-0  18932-3 0  9996,2 55765  70.0008  77.2898 0002818 283.1980  76.8901 15.69930509  5010,6737.233,91.724,360.996,357.199,0.0
55765.0,STARLINK-5595,PAYLOAD,2023-04-01 02:33:39,15.69932089,0.0003264,70.0014,75.4985,272.4543,87.6279,0.00021038,0.00025167,0.0,0 STARLINK-5595,1 55765U 23028AA  23091.10670465  .00025167  00000-0  21038-3 0  9995,2 55765  70.0014  75.4985 0003264 272.4543  87.6279 15.69932089  5110,6737.228,91.724,361.292,356.894,0.0
55765.0,STARLINK-5595,PAYLOAD,2023-04-01 10:12:24,15.69932685,0.0003016,70.0007,74.6015,276.9983,83.087,0.00012455,0.00014794,0.0,0 STARLINK-5595,1 55765U 23028AA  23091.42528781  .00014794  00000-0  12455-3 0  9990,2 55765  70.0007  74.6015 0003016 276.9983  83.0870 15.69932685  5163,6737.227,91.724,361.124,357.06,0.0
55765.0,STARLINK-5595,PAYLOAD,2023-04-02 01:29:56,15.69932462,0.0002649,70.0019,72.8089,278.6304,81.4592,6.9125e-05,8.109e-05,0.0,0 STARLINK-5595,1 55765U 23028AA  23092.06245471  .00008109  00000-0  69125-4 0  9993,2 55765  70.0019  72.8089 0002649 278.6304  81.4592 15.69932462  5261,6737.227,91.724,360.877,357.308,0.0
